1 45068U 20006AA  22365.54060227  .00003220  00000-0  23498-3 0  9991
2 45068  53.0541  92.5594 0001394  69.7072 290.4066 15.06400891161273
1 45068U 20006AA  22365.67329454  .00004246  00000-0  30373-3 0  9994
2 45068  53.0542  91.9633 0001436  71.0553 289.0591 15.06403241161299
1 45068U 20006AA  23001.60216126 -.00000790  00000-0 -34172-4 0  9990
2 45068  53.0534  87.7927 0001506  68.8072 291.3078 15.06393976161432
1 45068U 20006AA  23001.66851247  .00000485  00000-0  51436-4 0  9996
2 45068  53.0544  87.4956 0001494  70.4996 289.6154 15.06392719161442
1 45068U 20006AA  23002.59735661 -.00000038  00000-0  16320-4 0  9998
2 45068  53.0546  83.3253 0001530  68.5494 291.5658 15.06408324161587
1 45068U 20006AA  23003.59256598  .00001552  00000-0  12310-3 0  9991
2 45068  53.0541  78.8576 0001539  71.5434 288.5723 15.06394708161732
1 45068U 20006AA  23004.45506827  .00001327  00000-0  10796-3 0  9996
2 45068  53.0542  74.9856 0001525  68.6726 291.4425 15.06405209161862
1 45068U 20006AA  23005.45026270  .00002446  00000-0  18300-3 0  9998
2 45068  53.0551  70.5184 0001421  63.4793 296.6341 15.06409649162014
1 45068U 20006AA  23005.58295486  .00002053  00000-0  15663-3 0  9992
2 45068  53.0555  69.9222 0001419  66.8267 293.2871 15.06411554162034
1 45068U 20006AA  23006.57816842 -.00000862  00000-0 -38950-4 0  9990
2 45068  53.0532  65.4549 0001567  64.8629 295.2523 15.06393381162185
1 45068U 20006AA  23007.17528434 -.00000209  00000-0  48505-5 0  9996
2 45068  53.0544  62.7740 0001611  68.8203 291.2958 15.06405841162276
1 45068U 20006AA  23007.83875922 -.00001442  00000-0 -77927-4 0  9996
2 45068  53.0549  59.7959 0001519  63.5697 296.5448 15.06399236162378
1 45068U 20006AA  23008.17049400  .00001169  00000-0  97384-4 0  9991
2 45068  53.0547  58.3066 0001519  60.5584 299.5556 15.06394029162426
1 45068U 20006AA  23008.83396679  .00001049  00000-0  89326-4 0  9991
2 45068  53.0546  55.3281 0001536  59.8695 300.2446 15.06391327162521
1 45068U 20006AA  23009.09935406  .00000156  00000-0  29399-4 0  9999
2 45068  53.0548  54.1367 0001523  59.9479 300.1661 15.06394536162569
1 45068U 20006AA  23010.35994312  .00000724  00000-0  67514-4 0  9993
2 45068  53.0539  48.4771 0001694  60.5305 299.5852 15.06397320162757
1 45068U 20006AA  23011.48783828  .00000459  00000-0  49682-4 0  9997
2 45068  53.0542  43.4135 0001553  58.7214 301.3927 15.06402195162923
1 45068U 20006AA  23012.35034672  .00001631  00000-0  12840-3 0  9998
2 45068  53.0539  39.5427 0001618  57.6793 302.4352 15.06397748163057
1 45068U 20006AA  23013.47824570 -.00000689  00000-0 -27337-4 0  9998
2 45068  53.0544  34.4819 0001574  58.5029 301.6114 15.06402880163225
1 45068U 20006AA  23013.87633163 -.00000506  00000-0 -15045-4 0  9999
2 45068  53.0546  32.6923 0001595  57.5674 302.5469 15.06395004163289
1 45068U 20006AA  23015.40230858  .00000646  00000-0  62241-4 0  9997
2 45068  53.0542  25.8412 0001648  62.8443 297.2713 15.06400996163519
1 45068U 20006AA  23015.73404691 -.00000021  00000-0  17487-4 0  9991
2 45068  53.0541  24.3519 0001662  63.4517 296.6642 15.06396503163562
1 45068U 20006AA  23016.39750347  .00002617  00000-0  19450-3 0  9999
2 45068  53.0544  21.3727 0001713  60.4866 299.6294 15.06410327163662
1 45068U 20006AA  23016.72924171  .00003463  00000-0  25126-3 0  9991
2 45068  53.0537  19.8831 0001792  64.8925 295.2249 15.06405690163718
1 45068U 20006AA  23017.39270123  .00003446  00000-0  25004-3 0  9992
2 45068  53.0543  16.9046 0001905  72.6872 287.4325 15.06409529163819
1 45068U 20006AA  23017.72443109  .00003744  00000-0  27000-3 0  9994
2 45068  53.0541  15.4148 0001747  68.6977 291.4199 15.06416666163868
1 45068U 20006AA  23018.38789638  .00000974  00000-0  84245-4 0  9994
2 45068  53.0549  12.4364 0001725  73.2754 286.8424 15.06415135163964
1 45068U 20006AA  23019.38311496 -.00002644  00000-0 -15871-3 0  9994
2 45068  53.0546   7.9702 0001444  80.1913 279.9238 15.06393586164117
1 45068U 20006AA  23020.44467085 -.00000870  00000-0 -39517-4 0  9992
2 45068  53.0547   3.2048 0001471  85.8056 274.3101 15.06389202164275
1 45068U 20006AA  23025.28801045  .00000665  00000-0  63554-4 0  9995
2 45068  53.0547 341.4612 0001494  93.8376 266.2784 15.06399394165000
1 45068U 20006AA  23026.15052168  .00000969  00000-0  83921-4 0  9993
2 45068  53.0544 337.5897 0001540  92.2142 267.9023 15.06396808165139
1 45068U 20006AA  23027.21207616  .00000112  00000-0  26442-4 0  9996
2 45068  53.0551 332.8238 0001541  90.3390 269.7776 15.06393289165639
1 45068U 20006AA  23028.20727452  .00000910  00000-0  79968-4 0  9998
2 45068  53.0552 328.3564 0001494  93.0115 267.1045 15.06398687165441
1 45068U 20006AA  23028.87074468  .00000986  00000-0  85083-4 0  9991
2 45068  53.0545 325.3769 0001385 100.0336 260.0809 15.06394699165540
1 45068U 20006AA  23029.20247843 -.00000987  00000-0 -47386-4 0  9995
2 45068  53.0547 323.8884 0001371  94.3704 265.7442 15.06402539165595
1 45068U 20006AA  23030.19768282 -.00000026  00000-0  17129-4 0  9995
2 45068  53.0546 319.4210 0001425  96.0890 264.0261 15.06397359165744
1 45068U 20006AA  23030.92749419  .00000857  00000-0  76454-4 0  9994
2 45068  53.0547 316.1449 0001420  95.9302 264.1849 15.06398876165854
1 45068U 20006AA  23031.19288484  .00000357  00000-0  42835-4 0  9995
2 45068  53.0545 314.9538 0001393  93.9022 266.2126 15.06395723165896
